ARCSTONE                
1 64540U 25135N   26068.88991918  .00026427  00000+0  94900-3 0  9995
2 64540  97.4495 185.9194 0004120 166.7863 193.3485 15.28638458 39847
STARLINK-35325          
1 66080U 25235Y   26068.76605585  .00021523  00000+0  73661-3 0  9999
2 66080  53.1588 244.8772 0000904  86.5522 273.5582 15.30203606 22931
